H1 CPF 01  gfz 2022 07 07 12  6882 tandemx   
H2 1003001  6202 36605    2022 07 07 12 59 42 2022 07 12 00 00 42   120 1 1  0 0 0
H9
10 0 59767  79902.000000  0    1550743.720  -4416322.171   5044463.529
10 0 59767  80022.000000  0    1122587.996  -3825933.155   5607279.579
10 0 59767  80142.000000  0     685813.208  -3161159.771   6071474.704
10 0 59767  80262.000000  0     249252.170  -2433557.510   6428924.134
10 0 59767  80382.000000  0    -178485.302  -1655919.927   6673378.221
10 0 59767  80502.000000  0    -589180.531   -842051.297   6800565.850
10 0 59767  80622.000000  0    -975162.657     -6519.961   6808265.694
10 0 59767  80742.000000  0   -1329451.126    835603.015   6696342.483
10 0 59767  80862.000000  0   -1645881.500   1669015.160   6466748.854
10 0 59767  80982.000000  0   -1919212.917   2478459.798   6123493.523
10 0 59767  81102.000000  0   -2145215.634   3249005.581   5672575.520
10 0 59767  81222.000000  0   -2320736.890   3966323.490   5121885.089
10 0 59767  81342.000000  0   -2443745.146   4616957.679   4481072.728
10 0 59767  81462.000000  0   -2513350.916   5188584.827   3761385.167
10 0 59767  81582.000000  0   -2529803.587   5670255.925   2975470.673
10 0 59767  81702.000000  0   -2494463.751   6052614.130   2137156.466
10 0 59767  81822.000000  0   -2409752.153   6328084.384   1261203.089
10 0 59767  81942.000000  0   -2279075.648   6491029.918    363039.300
10 0 59767  82062.000000  0   -2106732.287   6537871.332   -541516.949
10 0 59767  82182.000000  0   -1897798.195   6467165.562  -1436546.226
10 0 59767  82302.000000  0   -1657997.822   6279640.303  -2306319.766
10 0 59767  82422.000000  0   -1393561.011   5978180.204  -3135583.309
10 0 59767  82542.000000  0   -1111072.920   5567772.979  -3909826.415
10 0 59767  82662.000000  0    -817320.259   5055415.974  -4615536.599
10 0 59767  82782.000000  0    -519136.997   4449984.593  -5240431.159
10 0 59767  82902.000000  0    -223252.927   3762068.367  -5773664.336
10 0 59767  83022.000000  0      63851.810   3003776.306  -6206007.112
10 0 59767  83142.000000  0     336082.448   2188516.436  -6529995.541
10 0 59767  83262.000000  0     587852.902   1330756.717  -6740047.692
10 0 59767  83382.000000  0     814195.646    445769.740  -6832550.773
10 0 59767  83502.000000  0    1010855.903   -450635.177  -6805916.311
10 0 59767  83622.000000  0    1174368.813  -1342388.880  -6660603.549
10 0 59767  83742.000000  0    1302118.698  -2213442.422  -6399110.949
10 0 59767  83862.000000  0    1392380.555  -3048047.934  -6025938.969
10 0 59767  83982.000000  0    1444342.827  -3831039.650  -5547522.758
10 0 59767  84102.000000  0    1458109.871  -4548109.990  -4972131.095
10 0 59767  84222.000000  0    1434685.883  -5186072.419  -4309733.897
10 0 59767  84342.000000  0    1375939.163  -5733110.298  -3571841.231
10 0 59767  84462.000000  0    1284546.434  -6179005.591  -2771311.635
10 0 59767  84582.000000  0    1163919.728  -6515340.958  -1922133.588
10 0 59767  84702.000000  0    1018116.714  -6735671.130  -1039182.788
10 0 59767  84822.000000  0     851735.244  -6835657.767   -137959.125
10 0 59767  84942.000000  0     669795.601  -6813163.302    765690.817
10 0 59767  85062.000000  0     477613.396  -6668302.060   1655859.678
10 0 59767  85182.000000  0     280666.057  -6403446.491   2516868.829
10 0 59767  85302.000000  0      84456.383  -6023186.350   3333554.759
10 0 59767  85422.000000  0    -105623.868  -5534241.492   4091543.032
10 0 59767  85542.000000  0    -284426.316  -4945334.857   4777504.371
10 0 59767  85662.000000  0    -447170.617  -4267027.174   5379390.748
10 0 59767  85782.000000  0    -589558.402  -3511517.861   5886645.717
10 0 59767  85902.000000  0    -707874.562  -2692415.446   6290386.469
10 0 59767  86022.000000  0    -799073.487  -1824484.626   6583551.799
10 0 59767  86142.000000  0    -860848.835   -923377.350   6761018.779
10 0 59767  86262.000000  0    -891686.133     -5348.963   6819688.297
10 0 59767  86382.000000  0    -890897.065    913035.743   6758536.079
10 0 59768    102.000000  0    -858633.678   1815201.124   6578629.417
10 0 59768    222.000000  0    -795883.050   2684859.305   6283109.544
10 0 59768    342.000000  0    -704443.011   3506304.342   5877140.378
10 0 59768    462.000000  0    -586879.254   4264698.190   5367823.329
10 0 59768    582.000000  0    -446464.019   4946342.470   4764078.962
10 0 59768    702.000000  0    -287097.973   5538933.886   4076496.931
10 0 59768    822.000000  0    -113215.725   6031793.742   3317152.634
10 0 59768    942.000000  0      70320.916   6416070.219   2499400.678
10 0 59768   1062.000000  0     258341.851   6684911.966   1637636.576
10 0 59768   1182.000000  0     445497.453   6833596.397    747036.960
10 0 59768   1302.000000  0     626392.311   6859617.910   -156714.060
10 0 59768   1422.000000  0     795721.272   6762731.945  -1057709.862
10 0 59768   1542.000000  0     948402.818   6544952.434  -1940110.108
10 0 59768   1662.000000  0    1079706.857   6210504.908  -2788426.356
10 0 59768   1782.000000  0    1185374.706   5765736.117  -3587799.223
10 0 59768   1902.000000  0    1261728.346   5218982.644  -4324261.123
10 0 59768   2022.000000  0    1305766.069   4580402.229  -4984979.162
10 0 59768   2142.000000  0    1315242.370   3861772.887  -5558473.039
10 0 59768   2262.000000  0    1288730.239   3076266.517  -6034806.024
10 0 59768   2382.000000  0    1225665.098   2238200.176  -6405746.935
10 0 59768   2502.000000  0    1126369.546   1362772.157  -6664899.788
10 0 59768   2622.000000  0     992059.243    465788.217  -6807804.095
10 0 59768   2742.000000  0     824829.601   -436620.134  -6832003.668
10 0 59768   2862.000000  0     627623.335  -1328280.144  -6737083.267
10 0 59768   2982.000000  0     404179.711  -2193259.628  -6524673.379
10 0 59768   3102.000000  0     158966.622  -3016143.437  -6198426.620
10 0 59768   3222.000000  0    -102905.366  -3782304.985  -5763963.175
10 0 59768   3342.000000  0    -375784.123  -4478164.728  -5228782.727
10 0 59768   3462.000000  0    -653591.131  -5091432.961  -4602146.757
10 0 59768   3582.000000  0    -929949.864  -5611333.399  -3894929.731
10 0 59768   3702.000000  0   -1198324.583  -6028802.153  -3119439.879
10 0 59768   3822.000000  0   -1452166.414  -6336657.118  -2289212.038
10 0 59768   3942.000000  0   -1685063.924  -6529734.492  -1418775.270
10 0 59768   4062.000000  0   -1890894.256  -6604987.767   -523397.699
10 0 59768   4182.000000  0   -2063971.069  -6561545.189    381185.927
10 0 59768   4302.000000  0   -2199185.815  -6400723.636   1279057.912
10 0 59768   4422.000000  0   -2292138.311  -6125998.267   2154406.496
10 0 59768   4542.000000  0   -2339252.932  -5742928.298   2991813.596
10 0 59768   4662.000000  0   -2337877.014  -5259040.637   3776534.382
10 0 59768   4782.000000  0   -2286359.295  -4683675.131   4494762.183
10 0 59768   4902.000000  0   -2184107.007  -4027796.482   5133873.774
10 0 59768   5022.000000  0   -2031620.839  -3303776.641   5682651.930
10 0 59768   5142.000000  0   -1830505.586  -2525151.962   6131479.266
10 0 59768   5262.000000  0   -1583456.700  -1706364.052   6472501.051
10 0 59768   5382.000000  0   -1294224.426   -862488.104   6699757.314
10 0 59768   5502.000000  0    -967556.608     -8951.986   6809280.543
10 0 59768   5622.000000  0    -609121.068    838745.332   6799159.700
10 0 59768   5742.000000  0    -225407.225   1665314.564   6669572.396
10 0 59768   5862.000000  0     176391.438   2455951.717   6422782.013
10 0 59768   5982.000000  0     588511.738   3196603.100   6063100.171
10 0 59768   6102.000000  0    1002769.290   3874216.319   5596816.297
10 0 59768   6222.000000  0    1410719.376   4476974.046   5032093.331
10 0 59768   6342.000000  0    1803827.623   4994506.137   4378830.817
10 0 59768   6462.000000  0    2173647.227   5418075.032   3648495.763
10 0 59768   6582.000000  0    2511999.738   5740730.979   2853926.049
10 0 59768   6702.000000  0    2811153.918   5957437.199   2009104.361
10 0 59768   6822.000000  0    3063999.642   6065154.468   1128906.850
10 0 59768   6942.000000  0    3264210.428   6062885.009    228834.716
10 0 59768   7062.000000  0    3406391.690   5951676.145   -675266.330
10 0 59768   7182.000000  0    3486211.624   5734582.161  -1567493.576
10 0 59768   7302.000000  0    3500510.322   5416586.371  -2432174.624
10 0 59768   7422.000000  0    3447385.211   5004485.057  -3254149.609
10 0 59768   7542.000000  0    3326249.449   4506735.800  -4019041.178
10 0 59768   7662.000000  0    3137862.929   3933275.837  -4713505.335
10 0 59768   7782.000000  0    2884336.054   3295316.505  -5325460.695
10 0 59768   7902.000000  0    2569106.679   2605117.006  -5844291.627
10 0 59768   8022.000000  0    2196891.174   1875743.856  -6261022.615
10 0 59768   8142.000000  0    1773610.580   1120821.324  -6568461.847
10 0 59768   8262.000000  0    1306295.409    354278.343  -6761313.293
10 0 59768   8382.000000  0     802969.151   -409904.227  -6836259.607
10 0 59768   8502.000000  0     272511.080  -1157943.915  -6792012.646
10 0 59768   8622.000000  0    -275496.825  -1876498.505  -6629331.477
10 0 59768   8742.000000  0    -830937.887  -2552897.102  -6351011.666
10 0 59768   8862.000000  0   -1383343.158  -3175360.312  -5961843.438
10 0 59768   8982.000000  0   -1922083.706  -3733203.542  -5468537.129
10 0 59768   9102.000000  0   -2436571.057  -4217021.641  -4879619.396
10 0 59768   9222.000000  0   -2916463.937  -4618853.153  -4205297.954
10 0 59768   9342.000000  0   -3351876.202  -4932318.403  -3457294.339
10 0 59768   9462.000000  0   -3733581.153  -5152728.872  -2648648.422
10 0 59768   9582.000000  0   -4053208.987  -5277165.586  -1793496.331
10 0 59768   9702.000000  0   -4303431.980  -5304523.538   -906824.500
10 0 59768   9822.000000  0   -4478132.163  -5235520.481     -4204.228
10 0 59768   9942.000000  0   -4572546.841  -5072669.136    898487.864
99
